1 48019C 21024AU  22353.16159722  .00007583  00000-0  50813-3 0  3536
2 48019  53.0540 193.2471 0001530  73.4478 145.0868 15.06386759    13
STARLINK-2294           
1 48020C 21024AV  22353.18798611  .00009446  00000-0  63262-3 0  3538
2 48020  53.0519 148.5496 0001761  51.9042  77.0941 15.06404259    17
STARLINK-2301           
1 48021C 21024AW  22353.17687500  .00004976  00000-0  33329-3 0  3536
2 48021  53.0515 153.1983 0001817  53.3973 308.0804 15.06407559    19
STARLINK-2298           
1 48022C 21024AX  22353.17131944  .00014871  00000-0  99656-3 0  3533
2 48022  53.0520 213.4989 0001681  75.6728 105.4373 15.06376863    19
STARLINK-2292           
1 48023C 21024AY  22353.15743056  .00014735  00000-0  98764-3 0  3533
2 48023  53.0522 213.2868 0001549  85.8589  80.0657 15.06369924    10
STARLINK-2278           
1 48026C 21024BB  22353.14701389  .00017841  00000-0  11950-2 0  3530
2 48026  53.0539 218.3276 0001545 107.3076 114.6171 15.06391127    12
STARLINK-2300           
1 48027C 21024BC  22353.16645833  .00006955  00000-0  46614-3 0  3534
2 48027  53.0525 193.2328 0001345  91.5625  93.3342 15.06381004    15
STARLINK-2264           
1 48028C 21024BD  22353.18451389  .00009971  00000-0  66788-3 0  3533
2 48028  53.0520 148.5591 0002112  56.5499 313.6246 15.06398145    14
STARLINK-2299           
1 48029C 21024BE  22353.13104167  .00017254  00000-0  11561-2 0  3539
2 48029  53.0535 213.3871 0001350  70.0512  72.6965 15.06379133    19
STARLINK-2268           
1 48030C 21024BF  22353.16090278  .00016972  00000-0  11371-2 0  3536
2 48030  53.0527 218.2718 0001433  86.3694  70.8908 15.06382578    13
STARLINK-2267           
1 48031C 21024BG  22353.17895833  .00019333  00000-0  12951-2 0  3537
2 48031  53.0530 103.1879 0001603  51.3909 356.4069 15.06385574    18
STARLINK-2286           
1 48033C 21024BJ  22353.11993056  .00015480  00000-0  10374-2 0  3535
2 48033  53.0519 213.4598 0001498  75.3954  67.0616 15.06373254    13
STARLINK-2288           
1 48034C 21024BK  22353.14145833  .00016062  00000-0  10765-2 0  3532
2 48034  53.0518 213.3631 0001325  76.5530  82.7703 15.06369945    15
STARLINK-2295           
1 48036C 21024BM  22353.17687500  .00012897  00000-0  86405-3 0  3536
2 48036  53.0526 213.2021 0001613  69.3148 242.1624 15.06386911    19
STARLINK-2048           
1 48092C 21027A   22353.18034722 -.00011845  00000-0 -79365-3 0  3535
2 48092  53.0540 338.4600 0001566  84.5995 217.9857 15.06408038    19
STARLINK-2404           
1 48093C 21027B   22353.16368056  .00018159  00000-0  12165-2 0  3531
2 48093  53.0557  43.4649 0002240  36.8355  17.9130 15.06385477    17
STARLINK-2412           
1 48094C 21027C   22353.15395833  .00003991  00000-0  26723-3 0  3538
2 48094  53.0543  53.3046 0001981  38.8712 228.2131 15.06414365    11
STARLINK-2414           
1 48095C 21027D   22353.16090278  .00014366  00000-0  96233-3 0  3536
2 48095  53.0547  53.2583 0002320  32.6427 232.1489 15.06391900    13
STARLINK-2417           
1 48096C 21027E   22353.16368056  .00002849  00000-0  19089-3 0  3536
2 48096  53.0544  53.2490 0001980  41.4988  18.4013 15.06396024    19
STARLINK-2418           
1 48097C 21027F   22353.14840278 -.00029184  00000-0 -19555-2 0  3536
2 48097  53.0513  33.3347 0001593  68.8827  18.0426 15.06425262    12
STARLINK-2421           
1 48098C 21027G   22353.15951389  .00015517  00000-0  10396-2 0  3531
2 48098  53.0543  43.2699 0002061  36.8498 235.4283 15.06383863    12
STARLINK-2428           
1 48099C 21027H   22353.14076389  .00000681  00000-0  45638-4 0  3534
2 48099  53.0547  53.3663 0002040  40.7041 194.8398 15.06400731    14
STARLINK-2430           
1 48100C 21027J   22353.15395833 -.00005322  00000-0 -35643-3 0  3539
2 48100  53.0546  33.2969 0002539  26.2896 130.8111 15.06416425    12
STARLINK-2436           
1 48101C 21027K   22353.15743056  .00009076  00000-0  60804-3 0  3539
2 48101  53.0548  43.2858 0002091  39.2121 226.8898 15.06391041    15
STARLINK-2437           
1 48102C 21027L   22353.16854167  .00003040  00000-0  20366-3 0  3531
2 48102  53.0540  33.2273 0002256  41.0343  55.2362 15.06396244    18
STARLINK-2438           
1 48103C 21027M   22353.16437500  .00014395  00000-0  96450-3 0  3532
2 48103  53.0552  33.2855 0002187  34.1064 344.6769 15.06382439    11
STARLINK-2439           
1 48104C 21027N   22353.14631944 -.00029395  00000-0 -19696-2 0  3533
2 48104  53.0541  38.3286 0001452  76.6541 151.4624 15.06426353    17
STARLINK-2440           
1 48105C 21027P   22353.14006944 -.00005078  00000-0 -34031-3 0  3533
2 48105  53.0538 343.3612 0001921  61.0529 275.6896 15.06393804    15
STARLINK-2442           
1 48106C 21027Q   22353.15743056  .00007469  00000-0  50034-3 0  3532
2 48106  53.0529  33.2982 0001639  56.2227  99.7533 15.06399567    13
STARLINK-2443           
1 48107C 21027R   22353.16159722  .00007701  00000-0  51594-3 0  3536
2 48107  53.0553  33.2687 0001828  43.9300  54.6832 15.06391998    10
STARLINK-2444           
1 48108C 21027S   22353.15326389 -.00007140  00000-0 -47860-3 0  3531
2 48108  53.0543  43.2994 0001805  51.4882 146.8711 15.06390097    15
STARLINK-2445           
1 48109C 21027T   22353.14631944 -.00003305  00000-0 -22144-3 0  3534
2 48109  53.0554  53.3363 0002204  34.2647  51.4000 15.06403266    17
STARLINK-2447           
1 48110C 21027U   22353.14631944  .00002631  00000-0  17619-3 0  3536
2 48110  53.0555  43.3351 0002095  42.9975 177.6608 15.06409803    12
STARLINK-2448           
1 48111C 21027V   22353.16854167  .00004798  00000-0  32134-3 0  3538
2 48111  53.0549  43.2134 0001797  46.5280 334.7330 15.06405122    19
STARLINK-2449           
1 48112C 21027W   22353.15951389  .00007280  00000-0  48762-3 0  3535
2 48112  53.0554  58.4431 0002380  34.6026 335.0739 15.06399037    13
STARLINK-2450           
1 48113C 21027X   22353.16506944  .00015302  00000-0  10251-2 0  3535
2 48113  53.0549  53.2570 0001802  47.2882 340.1458 15.06387230    10
STARLINK-2451           
1 48114C 21027Y   22353.16368056 -.00003751  00000-0 -25123-3 0  3538
2 48114  53.0546  48.2452 0001532  62.8010 169.6841 15.06413940    15
STARLINK-2452           
1 48115C 21027Z   22353.15604167 -.00032018  00000-0 -21454-2 0  3534
2 48115  53.0550  43.2939 0002021  48.2928 350.2340 15.06426693    17
STARLINK-2454           
1 48116C 21027AA  22353.16784722 -.00007846  00000-0 -52567-3 0  3533
2 48116  53.0549  53.2291 0002241  29.3584  33.1329 15.06406103    18
STARLINK-2455           
1 48117C 21027AB  22353.15673611  .00016440  00000-0  11012-2 0  3534
2 48117  53.0554  33.2853 0003075  26.3394 130.9613 15.06387361    15
STARLINK-2458           
1 48118C 21027AC  22353.14215278 -.00049198  00000-0 -32968-2 0  3536
2 48118  53.0554  33.3558 0002128  43.1669 329.8856 15.06441067    11
STARLINK-2459           
1 48119C 21027AD  22353.16437500  .00006028  00000-0  40381-3 0  3535
2 48119  53.0553  33.2511 0002148  38.5998 120.1604 15.06397110    16
STARLINK-2460           
1 48120C 21027AE  22353.16784722  .00012687  00000-0  84989-3 0  3538
2 48120  53.0555  53.2464 0001756  44.0028  98.4533 15.06391934    15
STARLINK-2462           
1 48121C 21027AF  22353.16298611  .00002571  00000-0  17215-3 0  3535
2 48121  53.0555  43.2621 0001777  49.0662 221.9377 15.06415647    19
STARLINK-2463           
1 48122C 21027AG  22353.16159722 -.00005934  00000-0 -39753-3 0  3534
2 48122  53.0545  38.2307 0002261  35.0238 236.0659 15.06409331    10
STARLINK-2464           
1 48123C 21027AH  22353.15048611  .00004503  00000-0  30167-3 0  3537
2 48123  53.0551  33.3220 0002236  43.5246 114.7800 15.06395104    15
STARLINK-2465           
1 48124C 21027AJ  22353.16159722  .00008635  00000-0  57839-3 0  3530
2 48124  53.0538  43.2587 0001961  33.6570 189.9240 15.06397756    18
STARLINK-2466           
1 48125C 21027AK  22353.16020833  .00009851  00000-0  65991-3 0  3530
2 48125  53.0557  53.5171 0001971  42.7796  98.1081 15.06396683    17
STARLINK-2467           
1 48126C 21027AL  22353.16784722  .00000569  00000-0  38101-4 0  3536
2 48126  53.0544  33.2450 0002185  42.7449  29.7278 15.06411238    14
STARLINK-2468           
1 48127C 21027AM  22353.16090278  .00017141  00000-0  11484-2 0  3530
2 48127  53.0539  53.2724 0001855  40.3296  44.4770 15.06383575    15
STARLINK-2469           
1 48128C 21027AN  22353.13798611 -.00013403  00000-0 -89800-3 0  3531
2 48128  53.0534 343.4595 0002214  57.5988   7.7543 15.06412475    11
STARLINK-2471           
1 48129C 21027AP  22353.15395833 -.00031528  00000-0 -21123-2 0  3534
2 48129  53.0540  53.2997 0002066  45.0275  42.0325 15.06431761    16
STARLINK-2472           
1 48130C 21027AQ  22353.16784722 -.00000925  00000-0 -61953-4 0  3530
2 48130  53.0541  58.2408 0002033  41.8813 178.2123 15.06409879    10
STARLINK-2473           
1 48131C 21027AR  22353.16576389 -.00004773  00000-0 -31969-3 0  3537
2 48131  53.0555  33.2356 0002314  29.1347  72.0272 15.06412913    13
STARLINK-2474           
1 48132C 21027AS  22353.16715278  .00016955  00000-0  11358-2 0  3532
2 48132  53.0542  53.2338 0002051  41.3294 177.3672 15.06386350    15
STARLINK-2475           
1 48133C 21027AT  22353.16368056  .00016450  00000-0  11019-2 0  3535
2 48133  53.0542  53.2488 0001826  38.1532 181.7208 15.06388792    16
STARLINK-2476           
1 48134C 21027AU  22353.15743056 -.00000180  00000-0 -12030-4 0  3533
2 48134  53.0537  53.2857 0001997  45.3083 220.6410 15.06413421    17
STARLINK-2478           
1 48135C 21027AV  22353.15048611  .00015286  00000-0  10239-2 0  3537
2 48135  53.0546  58.4787 0001961  41.2706 179.4036 15.06392043    16
STARLINK-2479           
1 48136C 21027AW  22353.14701389 -.00003417  00000-0 -22902-3 0  3531
2 48136  53.0547  53.3190 0001723  46.6072  27.9892 15.06383914    15
STARLINK-2480           
1 48137C 21027AX  22353.16159722  .00013969  00000-0  93581-3 0  3534
